ONEWEB-0159             
1 48062U 21025W   24186.47210027 -.00000026  00000+0 -10581-3 0  9991
2 48062  87.8930 102.0723 0001764  81.5380 278.5949 13.13468406160046
ONEWEB-0164             
1 48063U 21025X   24186.53083794  .00000315  00000+0  82779-3 0  9995
2 48063  87.8929 102.0708 0002028  74.6957 285.4396 13.13470736160036
ONEWEB-0167             
1 48064U 21025Y   24186.48399752 -.00000257  00000+0 -73863-3 0  9995
2 48064  87.8932 102.0921 0001775  78.1435 281.9893 13.13468175160011
ONEWEB-0166             
1 48065U 21025Z   24186.50542418 -.00000365  00000+0 -10354-2 0  9993
2 48065  87.8927 102.0704 0001894  83.9700 276.1645 13.13470300160098
ONEWEB-0151             
1 48066U 21025AA  24186.50703093  .00000036  00000+0  63184-4 0  9996
2 48066  87.8928 102.0840 0002019  73.8219 286.3132 13.13471763160036
ONEWEB-0170             
1 48067U 21025AB  24186.51496520  .00000263  00000+0  68386-3 0  9992
2 48067  87.8930 102.0848 0002456  67.7946 292.3444 13.13470292159994
ONEWEB-0168             
1 48068U 21025AC  24186.50066383 -.00000435  00000+0 -12270-2 0  9995
2 48068  87.8934 102.0579 0001883  77.9271 282.2069 13.13470127160009
ONEWEB-0173             
1 48069U 21025AD  24186.49273111 -.00000308  00000+0 -87813-3 0  9998
2 48069  87.8934 102.0695 0001649  66.5655 293.5648 13.13468831160242
